{
  "type": "FeatureCollection",
  "features": [
    {
      "type": "Feature",
      "properties": {
        "norad_id": 31475,
        "name": "FENGYUN 1C DEB",
        "group": "fengyun-1c-debris",
        "lat": -51.45272448476582,
        "lon": 51.928958026343494,
        "alt_km": 897.8065139398768,
        "timestamp": "2025-12-20T07:33:51.095552+00:00",
        "meta_object_name": "FENGYUN 1C DEB",
        "meta_object_id": "1999-025BVP",
        "meta_epoch": "2025-12-19T10:28:07.826880",
        "meta_mean_motion": 14.38229,
        "meta_eccentricity": 0.0211787,
        "meta_inclination": 98.9397,
        "meta_ra_of_asc_node": 242.4077,
        "meta_arg_of_pericenter": 87.4314,
        "meta_mean_anomaly": 275.1095,
        "meta_ephemeris_type": 0,
        "meta_classification_type": "U",
        "meta_norad_cat_id": 31475,
        "meta_element_set_no": 999,
        "meta_rev_at_epoch": 96175,
        "meta_bstar": 0.000435,
        "meta_mean_motion_dot": 1.661e-05,
        "meta_mean_motion_ddot": 0,
        "tle_line1": "1 31475U 99025BVP 25353.43620170  .00001661  00000+0  43500-3 0  9994",
        "tle_line2": "2 31475  98.9397 242.4077 0211787  87.4314 275.1095 14.38229000961752"
      },
      "geometry": {
        "type": "Point",
        "coordinates": [
          51.928958026343494,
          -51.45272448476582
        ]
      }
    },
    {
      "type": "Feature",
      "properties": {
        "norad_id": 31476,
        "name": "FENGYUN 1C DEB",
        "group": "fengyun-1c-debris",
        "lat": -50.90139477084066,
        "lon": 78.99235462366767,
        "alt_km": 860.3182702859012,
        "timestamp": "2025-12-20T07:33:51.095561+00:00",
        "meta_object_name": "FENGYUN 1C DEB",
        "meta_object_id": "1999-025BVQ",
        "meta_epoch": "2025-12-19T03:06:15.783840",
        "meta_mean_motion": 14.22142534,
        "meta_eccentricity": 0.00531811,
        "meta_inclination": 98.8966,
        "meta_ra_of_asc_node": 66.6831,
        "meta_arg_of_pericenter": 154.1685,
        "meta_mean_anomaly": 206.2165,
        "meta_ephemeris_type": 0,
        "meta_classification_type": "U",
        "meta_norad_cat_id": 31476,
        "meta_element_set_no": 999,
        "meta_rev_at_epoch": 95790,
        "meta_bstar": 0.0012190563,
        "meta_mean_motion_dot": 2.696e-05,
        "meta_mean_motion_ddot": 0,
        "tle_line1": "1 31476U 99025BVQ 25353.12934935  .00002696  00000+0  12191-2 0  9998",
        "tle_line2": "2 31476  98.8966  66.6831 0053181 154.1685 206.2165 14.22142534957907"
      },
      "geometry": {
        "type": "Point",
        "coordinates": [
          78.99235462366767,
          -50.90139477084066
        ]
      }
    },
    {
      "type": "Feature",
      "properties": {
        "norad_id": 31477,
        "name": "FENGYUN 1C DEB",
        "group": "fengyun-1c-debris",
        "lat": -67.29446208119236,
        "lon": 141.88348603751663,
        "alt_km": 928.6586923322811,
        "timestamp": "2025-12-20T07:33:51.095572+00:00",
        "meta_object_name": "FENGYUN 1C DEB",
        "meta_object_id": "1999-025BVR",
        "meta_epoch": "2025-12-19T09:50:13.080768",
        "meta_mean_motion": 14.02929946,
        "meta_eccentricity": 0.0109841,
        "meta_inclination": 98.8861,
        "meta_ra_of_asc_node": 342.9557,
        "meta_arg_of_pericenter": 10.3178,
        "meta_mean_anomaly": 350.0208,
        "meta_ephemeris_type": 0,
        "meta_classification_type": "U",
        "meta_norad_cat_id": 31477,
        "meta_element_set_no": 999,
        "meta_rev_at_epoch": 95497,
        "meta_bstar": 0.0003417,
        "meta_mean_motion_dot": 5.15e-06,
        "meta_mean_motion_ddot": 0,
        "tle_line1": "1 31477U 99025BVR 25353.40987362  .00000515  00000+0  34170-3 0  9992",
        "tle_line2": "2 31477  98.8861 342.9557 0109841  10.3178 350.0208 14.02929946954970"
      },
      "geometry": {
        "type": "Point",
        "coordinates": [
          141.88348603751663,
          -67.29446208119236
        ]
      }
    },
    {
      "type": "Feature",
      "properties": {
        "norad_id": 31480,
        "name": "FENGYUN 1C DEB",
        "group": "fengyun-1c-debris",
        "lat": -71.71348922332383,
        "lon": -128.93667832252046,
        "alt_km": 910.1187270879855,
        "timestamp": "2025-12-20T07:33:51.095582+00:00",
        "meta_object_name": "FENGYUN 1C DEB",
        "meta_object_id": "1999-025BVU",
        "meta_epoch": "2025-12-18T19:38:58.728192",
        "meta_mean_motion": 13.89986726,
        "meta_eccentricity": 0.03442072,
        "meta_inclination": 98.3384,
        "meta_ra_of_asc_node": 203.3713,
        "meta_arg_of_pericenter": 204.4396,
        "meta_mean_anomaly": 154.0108,
        "meta_ephemeris_type": 0,
        "meta_classification_type": "U",
        "meta_norad_cat_id": 31480,
        "meta_element_set_no": 999,
        "meta_rev_at_epoch": 93480,
        "meta_bstar": 0.0019732966,
        "meta_mean_motion_dot": 3.886e-05,
        "meta_mean_motion_ddot": 0,
        "tle_line1": "1 31480U 99025BVU 25352.81873528  .00003886  00000+0  19733-2 0  9999",
        "tle_line2": "2 31480  98.3384 203.3713 0344207 204.4396 154.0108 13.89986726934802"
      },
      "geometry": {
        "type": "Point",
        "coordinates": [
          -128.93667832252046,
          -71.71348922332383
        ]
      }
    },
    {
      "type": "Feature",
      "properties": {
        "norad_id": 31482,
        "name": "FENGYUN 1C DEB",
        "group": "fengyun-1c-debris",
        "lat": 26.222151844968682,
        "lon": -177.87530655069014,
        "alt_km": 788.8798326032766,
        "timestamp": "2025-12-20T07:33:51.095592+00:00",
        "meta_object_name": "FENGYUN 1C DEB",
        "meta_object_id": "1999-025BVW",
        "meta_epoch": "2025-12-18T23:12:11.315232",
        "meta_mean_motion": 14.35682889,
        "meta_eccentricity": 0.00887405,
        "meta_inclination": 98.3819,
        "meta_ra_of_asc_node": 356.6496,
        "meta_arg_of_pericenter": 263.4701,
        "meta_mean_anomaly": 125.8614,
        "meta_ephemeris_type": 0,
        "meta_classification_type": "U",
        "meta_norad_cat_id": 31482,
        "meta_element_set_no": 999,
        "meta_rev_at_epoch": 97219,
        "meta_bstar": 0.00054542612,
        "meta_mean_motion_dot": 1.603e-05,
        "meta_mean_motion_ddot": 0,
        "tle_line1": "1 31482U 99025BVW 25352.96679763  .00001603  00000+0  54543-3 0  9996",
        "tle_line2": "2 31482  98.3819 356.6496 0088740 263.4701 125.8614 14.35682889972196"
      },
      "geometry": {
        "type": "Point",
        "coordinates": [
          -177.87530655069014,
          26.222151844968682
        ]
      }
    },
    {
      "type": "Feature",
      "properties": {
        "norad_id": 31483,
        "name": "FENGYUN 1C DEB",
        "group": "fengyun-1c-debris",
        "lat": -12.748863845280912,
        "lon": 124.7290856055413,
        "alt_km": 758.493530715803,
        "timestamp": "2025-12-20T07:33:51.095603+00:00",
        "meta_object_name": "FENGYUN 1C DEB",
        "meta_object_id": "1999-025BVX",
        "meta_epoch": "2025-12-17T08:11:59.820576",
        "meta_mean_motion": 14.16086223,
        "meta_eccentricity": 0.01183204,
        "meta_inclination": 102.5034,
        "meta_ra_of_asc_node": 303.4486,
        "meta_arg_of_pericenter": 209.5612,
        "meta_mean_anomaly": 312.1309,
        "meta_ephemeris_type": 0,
        "meta_classification_type": "U",
        "meta_norad_cat_id": 31483,
        "meta_element_set_no": 999,
        "meta_rev_at_epoch": 94771,
        "meta_bstar": 0.002207547,
        "meta_mean_motion_dot": 4.597e-05,
        "meta_mean_motion_ddot": 0,
        "tle_line1": "1 31483U 99025BVX 25351.34166459  .00004597  00000+0  22075-2 0  9990",
        "tle_line2": "2 31483 102.5034 303.4486 0118320 209.5612 312.1309 14.16086223947714"
      },
      "geometry": {
        "type": "Point",
        "coordinates": [
          124.7290856055413,
          -12.748863845280912
        ]
      }
    },
    {
      "type": "Feature",
      "properties": {
        "norad_id": 31484,
        "name": "FENGYUN 1C DEB",
        "group": "fengyun-1c-debris",
        "lat": 69.8537011226376,
        "lon": -101.03650449816861,
        "alt_km": 684.7641884268041,
        "timestamp": "2025-12-20T07:33:51.095613+00:00",
        "meta_object_name": "FENGYUN 1C DEB",
        "meta_object_id": "1999-025BVY",
        "meta_epoch": "2025-12-16T07:12:51.702624",
        "meta_mean_motion": 14.50534743,
        "meta_eccentricity": 0.0083054,
        "meta_inclination": 101.8044,
        "meta_ra_of_asc_node": 288.1066,
        "meta_arg_of_pericenter": 142.077,
        "meta_mean_anomaly": 218.6301,
        "meta_ephemeris_type": 0,
        "meta_classification_type": "U",
        "meta_norad_cat_id": 31484,
        "meta_element_set_no": 999,
        "meta_rev_at_epoch": 64289,
        "meta_bstar": 0.0030623043,
        "meta_mean_motion_dot": 0.00012484,
        "meta_mean_motion_ddot": 0,
        "tle_line1": "1 31484U 99025BVY 25350.30059841  .00012484  00000+0  30623-2 0  9994",
        "tle_line2": "2 31484 101.8044 288.1066 0083054 142.0770 218.6301 14.50534743642898"
      },
      "geometry": {
        "type": "Point",
        "coordinates": [
          -101.03650449816861,
          69.8537011226376
        ]
      }
    }
  ]
}